ONEWEB-0168             
1 48068U 21025AC  24073.22460652  .00000092  00000+0  21649-3 0  9994
2 48068  87.8946 124.6279 0002046 102.2611 257.8748 13.13470592145136
ONEWEB-0173             
1 48069U 21025AD  24073.21666856  .00000312  00000+0  82064-3 0  9991
2 48069  87.8946 124.6400 0001601 110.3340 249.7961 13.13469241145370
ONEWEB-0171             
1 48070U 21025AE  24072.87227405 -.00000203  00000+0 -59131-3 0  9997
2 48070  87.8946 124.7435 0001892  99.4510 260.6833 13.13469260145145
ONEWEB-0172             
1 48071U 21025AF  24072.39457597 -.00000188  00000+0 -54875-3 0  9994
2 48071  87.8949 124.8051 0001786 100.4838 259.6492 13.13469207145973
ONEWEB-0174             
1 48072U 21025AG  24072.37712893  .00000164  00000+0  41295-3 0  9990
2 48072  87.8950 124.8229 0002169 102.5893 257.5478 13.13469640145290
ONEWEB-0175             
1 48073U 21025AH  24072.86275158 -.00000301  00000+0 -86048-3 0  9993
2 48073  87.8939 124.7205 0001722  89.9675 270.1651 13.13468944145011
ONEWEB-0177             
1 48074U 21025AJ  24073.18015588 -.00000132  00000+0 -39663-3 0  9992
2 48074  87.8939 124.6636 0001962 112.5709 247.5628 13.13469838145246
ONEWEB-0178             
1 48075U 21025AK  24072.89305300  .00000329  00000+0  86684-3 0  9995
2 48075  87.8948 124.7320 0001890 107.2909 252.8427 13.13470038145252
